[{"OBJECT_NAME":"IRIDIUM 115","OBJECT_ID":"2017-039D","EPOCH":"2026-03-09T21:44:50.536608","MEAN_MOTION":14.43281411,"ECCENTRICITY":0.00018282,"INCLINATION":86.4554,"RA_OF_ASC_NODE":3.5706,"ARG_OF_PERICENTER":89.0887,"MEAN_ANOMALY":271.0524,"EPHEMERIS_TYPE":0,"CLASSIFICATION_TYPE":"U","NORAD_CAT_ID":42806,"ELEMENT_SET_NO":999,"REV_AT_EPOCH":45994,"BSTAR":0.00015631105,"MEAN_MOTION_DOT":5.46e-6,"MEAN_MOTION_DDOT":0},{"OBJECT_NAME":"FENGYUN 1C DEB","OBJECT_ID":"1999-025BAU","EPOCH":"2026-03-09T06:16:48.707904","MEAN_MOTION":14.15315603,"ECCENTRICITY":0.01256088,"INCLINATION":98.7075,"RA_OF_ASC_NODE":171.3726,"ARG_OF_PERICENTER":299.835,"MEAN_ANOMALY":115.8329,"EPHEMERIS_TYPE":0,"CLASSIFICATION_TYPE":"U","NORAD_CAT_ID":30954,"ELEMENT_SET_NO":999,"REV_AT_EPOCH":97611,"BSTAR":0.00094299093,"MEAN_MOTION_DOT":1.938e-5,"MEAN_MOTION_DDOT":0}]
